[{"OBJECT_NAME":"SITRO-AIS 5 (KATYS)","OBJECT_ID":"2023-091L","EPOCH":"2026-03-09T22:36:44.932608","MEAN_MOTION":15.27079182,"ECCENTRICITY":0.00133776,"INCLINATION":97.5176,"RA_OF_ASC_NODE":132.0172,"ARG_OF_PERICENTER":94.5677,"MEAN_ANOMALY":265.709,"EPHEMERIS_TYPE":0,"CLASSIFICATION_TYPE":"U","NORAD_CAT_ID":57176,"ELEMENT_SET_NO":999,"REV_AT_EPOCH":14918,"BSTAR":0.00057530772,"MEAN_MOTION_DOT":0.00015262,"MEAN_MOTION_DDOT":0},{"OBJECT_NAME":"STARLINK-34093","OBJECT_ID":"2025-101X","EPOCH":"2026-03-09T03:24:14.802336","MEAN_MOTION":15.27578207,"ECCENTRICITY":0.00019812,"INCLINATION":43.0048,"RA_OF_ASC_NODE":0.862,"ARG_OF_PERICENTER":255.4344,"MEAN_ANOMALY":104.6288,"EPHEMERIS_TYPE":0,"CLASSIFICATION_TYPE":"U","NORAD_CAT_ID":64015,"ELEMENT_SET_NO":999,"REV_AT_EPOCH":4697,"BSTAR":0.0014075952,"MEAN_MOTION_DOT":0.00038674,"MEAN_MOTION_DDOT":0}]
